[{"OBJECT_NAME":"STARLINK-33843","OBJECT_ID":"2025-071Q","EPOCH":"2026-03-09T12:26:52.433952","MEAN_MOTION":15.30190705,"ECCENTRICITY":0.00013713,"INCLINATION":53.1604,"RA_OF_ASC_NODE":140.6904,"ARG_OF_PERICENTER":71.6545,"MEAN_ANOMALY":288.4605,"EPHEMERIS_TYPE":0,"CLASSIFICATION_TYPE":"U","NORAD_CAT_ID":63507,"ELEMENT_SET_NO":999,"REV_AT_EPOCH":5272,"BSTAR":0.0011375767,"MEAN_MOTION_DOT":0.00033475,"MEAN_MOTION_DDOT":0},{"OBJECT_NAME":"SL-14 R\/B","OBJECT_ID":"1981-094B","EPOCH":"2026-03-09T21:30:19.492416","MEAN_MOTION":13.58083744,"ECCENTRICITY":0.08704644,"INCLINATION":82.4854,"RA_OF_ASC_NODE":232.0333,"ARG_OF_PERICENTER":95.3527,"MEAN_ANOMALY":274.7433,"EPHEMERIS_TYPE":0,"CLASSIFICATION_TYPE":"U","NORAD_CAT_ID":12849,"ELEMENT_SET_NO":999,"REV_AT_EPOCH":17275,"BSTAR":0.00019877381,"MEAN_MOTION_DOT":2.264e-5,"MEAN_MOTION_DDOT":0}]
